ONEWEB-0144             
1 47290U 20100AJ  25248.16350264 -.00000406  00000+0 -11628-2 0  9994
2 47290  87.8876  47.2725 0001625 103.0922 257.0388 13.12443199227186
ONEWEB-0145             
1 47291U 20100AK  25248.13431295  .00000413  00000+0  11121-2 0  9990
2 47291  87.8886  47.3089 0001638  96.2686 263.8629 13.12442775227379
ONEWEB-0146             
1 47292U 20100AL  25247.97859459  .00000401  00000+0  10782-2 0  9997
2 47292  87.8887  47.3265 0001844  83.2647 276.8692 13.12441851227265
ONEWEB-0147             
1 47293U 20100AM  25248.17323395 -.00000363  00000+0 -10448-2 0  9994
2 47293  87.8886  47.2661 0001421  92.8723 267.2569 13.12444947227183
ONEWEB-0115             
1 48042U 21025A   25248.27151675  .00000374  00000+0  98929-3 0  9996
2 48042  87.9027  16.8105 0001710  96.4515 263.6809 13.13471115216193
ONEWEB-0152             
1 48043U 21025B   25248.28505770  .00000265  00000+0  69192-3 0  9996
2 48043  87.9024  16.8220 0001673  94.1646 265.9675 13.13469632216150
ONEWEB-0153             
1 48044U 21025C   25248.11069954  .00000302  00000+0  79251-3 0  9997
2 48044  87.9023  16.8558 0001758  99.9071 260.2257 13.13470199216124
ONEWEB-0154             
1 48045U 21025D   25247.87876631  .00000183  00000+0  46597-3 0  9992
2 48045  87.9023  16.8993 0001692  97.3120 262.8201 13.13473163216055
